{
  "type": "FeatureCollection",
  "features": [
    {
      "type": "Feature",
      "properties": {
        "norad_id": 32175,
        "name": "FENGYUN 1C DEB",
        "group": "fengyun-1c-debris",
        "lat": -8.898015649799767,
        "lon": 147.28396955314648,
        "alt_km": 1015.0080968811972,
        "timestamp": "2025-12-05T19:30:25.851376+00:00",
        "meta_object_name": "FENGYUN 1C DEB",
        "meta_object_id": "1999-025CTV",
        "meta_epoch": "2025-11-30T18:04:30.432000",
        "meta_mean_motion": 13.94645307,
        "meta_eccentricity": 0.01526915,
        "meta_inclination": 98.8237,
        "meta_ra_of_asc_node": 323.8389,
        "meta_arg_of_pericenter": 355.8244,
        "meta_mean_anomaly": 4.1634,
        "meta_ephemeris_type": 0,
        "meta_classification_type": "U",
        "meta_norad_cat_id": 32175,
        "meta_element_set_no": 999,
        "meta_rev_at_epoch": 59673,
        "meta_bstar": 0.0032372864,
        "meta_mean_motion_dot": 4.731e-05,
        "meta_mean_motion_ddot": 0,
        "tle_line1": "1 32175U 99025CTV 25334.75313000  .00004731  00000+0  32373-2 0  9993",
        "tle_line2": "2 32175  98.8237 323.8389 0152691 355.8244   4.1634 13.94645307596738"
      },
      "geometry": {
        "type": "Point",
        "coordinates": [
          147.28396955314648,
          -8.898015649799767
        ]
      }
    },
    {
      "type": "Feature",
      "properties": {
        "norad_id": 32177,
        "name": "FENGYUN 1C DEB",
        "group": "fengyun-1c-debris",
        "lat": -54.28120133184631,
        "lon": 155.74181040586242,
        "alt_km": 749.2035571729148,
        "timestamp": "2025-12-05T19:30:25.851387+00:00",
        "meta_object_name": "FENGYUN 1C DEB",
        "meta_object_id": "1999-025CTX",
        "meta_epoch": "2025-12-05T06:53:19.340160",
        "meta_mean_motion": 14.56077237,
        "meta_eccentricity": 0.00522603,
        "meta_inclination": 99.0435,
        "meta_ra_of_asc_node": 347.969,
        "meta_arg_of_pericenter": 67.3526,
        "meta_mean_anomaly": 293.3184,
        "meta_ephemeris_type": 0,
        "meta_classification_type": "U",
        "meta_norad_cat_id": 32177,
        "meta_element_set_no": 999,
        "meta_rev_at_epoch": 70930,
        "meta_bstar": 0.0027017242,
        "meta_mean_motion_dot": 0.00012094,
        "meta_mean_motion_ddot": 0,
        "tle_line1": "1 32177U 99025CTX 25339.28702940  .00012094  00000+0  27017-2 0  9993",
        "tle_line2": "2 32177  99.0435 347.9690 0052260  67.3526 293.3184 14.56077237709305"
      },
      "geometry": {
        "type": "Point",
        "coordinates": [
          155.74181040586242,
          -54.28120133184631
        ]
      }
    },
    {
      "type": "Feature",
      "properties": {
        "norad_id": 32178,
        "name": "FENGYUN 1C DEB",
        "group": "fengyun-1c-debris",
        "lat": -13.120394788677162,
        "lon": 157.64838417068378,
        "alt_km": 878.3443750658671,
        "timestamp": "2025-12-05T19:30:25.851397+00:00",
        "meta_object_name": "FENGYUN 1C DEB",
        "meta_object_id": "1999-025CTY",
        "meta_epoch": "2025-12-05T05:05:50.358624",
        "meta_mean_motion": 14.22916156,
        "meta_eccentricity": 0.00948065,
        "meta_inclination": 100.303,
        "meta_ra_of_asc_node": 339.377,
        "meta_arg_of_pericenter": 344.1343,
        "meta_mean_anomaly": 15.6865,
        "meta_ephemeris_type": 0,
        "meta_classification_type": "U",
        "meta_norad_cat_id": 32178,
        "meta_element_set_no": 999,
        "meta_rev_at_epoch": 63896,
        "meta_bstar": 0.0024599894,
        "meta_mean_motion_dot": 5.74e-05,
        "meta_mean_motion_ddot": 0,
        "tle_line1": "1 32178U 99025CTY 25339.21238841  .00005740  00000+0  24600-2 0  9996",
        "tle_line2": "2 32178 100.3030 339.3770 0094806 344.1343  15.6865 14.22916156638961"
      },
      "geometry": {
        "type": "Point",
        "coordinates": [
          157.64838417068378,
          -13.120394788677162
        ]
      }
    },
    {
      "type": "Feature",
      "properties": {
        "norad_id": 32179,
        "name": "FENGYUN 1C DEB",
        "group": "fengyun-1c-debris",
        "lat": -27.5420136882058,
        "lon": 33.47248211961025,
        "alt_km": 942.983853436308,
        "timestamp": "2025-12-05T19:30:25.851408+00:00",
        "meta_object_name": "FENGYUN 1C DEB",
        "meta_object_id": "1999-025CTZ",
        "meta_epoch": "2025-12-03T02:46:28.571808",
        "meta_mean_motion": 14.0367335,
        "meta_eccentricity": 0.01447713,
        "meta_inclination": 98.911,
        "meta_ra_of_asc_node": 26.1355,
        "meta_arg_of_pericenter": 216.7043,
        "meta_mean_anomaly": 172.1012,
        "meta_ephemeris_type": 0,
        "meta_classification_type": "U",
        "meta_norad_cat_id": 32179,
        "meta_element_set_no": 999,
        "meta_rev_at_epoch": 65593,
        "meta_bstar": 0.00012219611,
        "meta_mean_motion_dot": 1.67e-06,
        "meta_mean_motion_ddot": 0,
        "tle_line1": "1 32179U 99025CTZ 25337.11560847  .00000167  00000+0  12220-3 0  9992",
        "tle_line2": "2 32179  98.9110  26.1355 0144771 216.7043 172.1012 14.03673350655935"
      },
      "geometry": {
        "type": "Point",
        "coordinates": [
          33.47248211961025,
          -27.5420136882058
        ]
      }
    },
    {
      "type": "Feature",
      "properties": {
        "norad_id": 32180,
        "name": "FENGYUN 1C DEB",
        "group": "fengyun-1c-debris",
        "lat": 61.70087222891762,
        "lon": 1.5241231202737329,
        "alt_km": 1046.1199046786705,
        "timestamp": "2025-12-05T19:30:25.851418+00:00",
        "meta_object_name": "FENGYUN 1C DEB",
        "meta_object_id": "1999-025CUA",
        "meta_epoch": "2025-12-04T22:56:25.154880",
        "meta_mean_motion": 13.82324666,
        "meta_eccentricity": 0.0136091,
        "meta_inclination": 99.5868,
        "meta_ra_of_asc_node": 18.9463,
        "meta_arg_of_pericenter": 231.0235,
        "meta_mean_anomaly": 250.4114,
        "meta_ephemeris_type": 0,
        "meta_classification_type": "U",
        "meta_norad_cat_id": 32180,
        "meta_element_set_no": 999,
        "meta_rev_at_epoch": 94160,
        "meta_bstar": 0.0002025,
        "meta_mean_motion_dot": 1.88e-06,
        "meta_mean_motion_ddot": 0,
        "tle_line1": "1 32180U 99025CUA 25338.95584670  .00000188  00000+0  20250-3 0  9992",
        "tle_line2": "2 32180  99.5868  18.9463 0136091 231.0235 250.4114 13.82324666941606"
      },
      "geometry": {
        "type": "Point",
        "coordinates": [
          1.5241231202737329,
          61.70087222891762
        ]
      }
    },
    {
      "type": "Feature",
      "properties": {
        "norad_id": 32181,
        "name": "FENGYUN 1C DEB",
        "group": "fengyun-1c-debris",
        "lat": -43.45278020527709,
        "lon": 91.7652885307459,
        "alt_km": 758.4116722417721,
        "timestamp": "2025-12-05T19:30:25.851428+00:00",
        "meta_object_name": "FENGYUN 1C DEB",
        "meta_object_id": "1999-025CUB",
        "meta_epoch": "2025-11-30T18:20:52.902816",
        "meta_mean_motion": 14.5587127,
        "meta_eccentricity": 0.00742263,
        "meta_inclination": 99.4729,
        "meta_ra_of_asc_node": 76.9403,
        "meta_arg_of_pericenter": 120.9158,
        "meta_mean_anomaly": 31.1571,
        "meta_ephemeris_type": 0,
        "meta_classification_type": "U",
        "meta_norad_cat_id": 32181,
        "meta_element_set_no": 999,
        "meta_rev_at_epoch": 96546,
        "meta_bstar": 0.0011280546,
        "meta_mean_motion_dot": 5.08e-05,
        "meta_mean_motion_ddot": 0,
        "tle_line1": "1 32181U 99025CUB 25334.76450119  .00005080  00000+0  11281-2 0  9997",
        "tle_line2": "2 32181  99.4729  76.9403 0074226 120.9158  31.1571 14.55871270965461"
      },
      "geometry": {
        "type": "Point",
        "coordinates": [
          91.7652885307459,
          -43.45278020527709
        ]
      }
    },
    {
      "type": "Feature",
      "properties": {
        "norad_id": 32183,
        "name": "FENGYUN 1C DEB",
        "group": "fengyun-1c-debris",
        "lat": -14.626990832782532,
        "lon": -151.06128120246476,
        "alt_km": 876.6516398831818,
        "timestamp": "2025-12-05T19:30:25.851438+00:00",
        "meta_object_name": "FENGYUN 1C DEB",
        "meta_object_id": "1999-025CUD",
        "meta_epoch": "2025-12-02T20:46:03.470880",
        "meta_mean_motion": 14.1004773,
        "meta_eccentricity": 0.00432965,
        "meta_inclination": 98.7142,
        "meta_ra_of_asc_node": 28.3779,
        "meta_arg_of_pericenter": 88.5408,
        "meta_mean_anomaly": 272.0723,
        "meta_ephemeris_type": 0,
        "meta_classification_type": "U",
        "meta_norad_cat_id": 32183,
        "meta_element_set_no": 999,
        "meta_rev_at_epoch": 72625,
        "meta_bstar": 0.00090671194,
        "meta_mean_motion_dot": 1.573e-05,
        "meta_mean_motion_ddot": 0,
        "tle_line1": "1 32183U 99025CUD 25336.86531795  .00001573  00000+0  90671-3 0  9996",
        "tle_line2": "2 32183  98.7142  28.3779 0043296  88.5408 272.0723 14.10047730726255"
      },
      "geometry": {
        "type": "Point",
        "coordinates": [
          -151.06128120246476,
          -14.626990832782532
        ]
      }
    }
  ]
}